STARLINK-31335          
1 58969U 24031E   24060.58334491 -.01685217  00000+0 -18612-1 0  9996
2 58969  53.1605 130.3539 0001008  59.1979 342.6800 15.65667543  3365
STARLINK-31368          
1 58970U 24031F   24060.33334491 -.01739879  00000+0 -18560-1 0  9997
2 58970  53.1612 131.5764 0001096  80.6950 352.7764 15.66629666  3325
STARLINK-31333          
1 58971U 24031G   24061.91667824 -.01746914  00000+0 -23141-1 0  9991
2 58971  53.1603 123.8335 0000641  89.6287 263.5682 15.60675823  3600
STARLINK-31351          
1 58972U 24031H   24061.58334491 -.01701590  00000+0 -21434-1 0  9990
2 58972  53.1602 125.4544 0000724  73.2991 207.1835 15.61888204  3551
STARLINK-31365          
1 58973U 24031J   24060.58334491 -.01683604  00000+0 -18632-1 0  9991
2 58973  53.1607 130.3350 0000864  71.1794 340.3624 15.65615617  3365
STARLINK-31361          
1 58974U 24031K   24060.16667824 -.01692017  00000+0 -17567-1 0  9999
2 58974  53.1609 132.3813 0001168 111.6502 106.9831 15.67195568  3321
STARLINK-31369          
1 58975U 24031L   24061.75002315 -.01756295  00000+0 -22745-1 0  9997
2 58975  53.1597 124.6308 0001155  67.7057  75.9852 15.61269256  3589
STARLINK-31324          
1 58976U 24031M   24060.16667824 -.01693696  00000+0 -17608-1 0  9991
2 58976  53.1613 132.3686 0001225  98.3817 126.0965 15.67165625  3298
STARLINK-31358          
1 58977U 24031N   24061.08334491 -.01672288  00000+0 -19963-1 0  9995
2 58977  53.1598 127.8723 0000613  91.1441 264.1971 15.63708736  3390
STARLINK-31355          
1 58978U 24031P   24062.25001157 -.01757670  00000+0 -24501-1 0  9999
2 58978  53.1607 122.1863 0000890  91.8498 347.5516 15.59371723  3669
STARLINK-31380          
1 58979U 24031Q   24060.66667824 -.01675004  00000+0 -18798-1 0  9993
2 58979  53.1600 129.9054 0001006  70.7345 100.3626 15.65250700  3404
STARLINK-31353          
1 58980U 24031R   24060.41668981 -.01728667  00000+0 -18754-1 0  9999
2 58980  53.1606 131.1235 0000973  62.1783 142.8900 15.66194931  3311
STARLINK-31339          
1 58981U 24031S   24060.66667824 -.01674132  00000+0 -18794-1 0  9993
2 58981  53.1601 129.9030 0001161  63.8290 109.1983 15.65239724  3402
STARLINK-31360          
1 58982U 24031T   24060.33334491 -.01732887  00000+0 -18567-1 0  9999
2 58982  53.1606 131.5289 0001538  64.8502  31.9227 15.66502912  3325
STARLINK-31384          
1 58983U 24031U   24062.25001157 -.01759056  00000+0 -24569-1 0  9999
2 58983  53.1606 122.1671 0001020  84.2352   4.5195 15.59321353  3625
STARLINK-31379          
1 58984U 24031V   24061.66667824 -.01709353  00000+0 -21904-1 0  9998
2 58984  53.1600 125.0011 0000863  69.6859 342.2917 15.61462002  3560
STARLINK-31385          
1 58985U 24031W   24062.25001157 -.00008458  00000+0 -56006-4 0  9997
2 58985  53.1619 121.4732 0000377  27.8979  43.6935 15.73163720  3638
STARLINK-31229          
1 58986U 24031X   24060.33334491 -.01637729  00000+0 -17602-1 0  9991
2 58986  53.1607 131.5118 0001591  73.5085  30.8089 15.66237465  3325
2024-032A               
1 58987U 24032A   24062.11685220  .00000603  00000+0  11726-3 0  9995
2 58987  98.1173 119.3730 0002368 187.5149 172.6020 14.66579647  2067
2024-032B               
1 58988U 24032B   24052.42760889  .00014389  00000+0  25736-2 0  9995
2 58988  98.1200 109.7876 0001717 268.0294  92.0713 14.66967822   648
2024-032C               
1 58989U 24032C   24062.10473800  .00001570  00000+0  28340-3 0  9999
2 58989  98.1131 119.3796 0004409 297.6075  62.4681 14.67857356  2060
INSAT-3DS               
1 58990U 24033A   24049.25631839  .00477622  89628-6  14711-1 0  9991
2 58990  19.4346 272.9648 7439297 178.6043 206.5352  2.12501023    29
GSLV R/B                
1 58991U 24033B   24061.39282543  .00034622  50837-6  89740-3 0  9990
2 58991  19.3540 268.4907 7433746 186.7031 149.8604  2.13406415   279
ADRAS-J                 
1 58992U 24034A   24062.11793191  .00007102  00000+0  55460-3 0  9994
2 58992  98.2028  30.2705 0046565  42.5960 317.8859 15.00598057  1870
ELECTRON KICK STAGE R/B 
1 58993U 24034B   24061.91006147  .00013179  00000+0  99527-3 0  9993
2 58993  98.2069  30.0861 0046559  43.6744 316.8148 15.01664747  1840
ELECTRON R/B            
1 58994U 24034C   24062.15631369  .02312629  26517-5  16308-2 0  9997
2 58994  98.2089  32.0960 0139656 185.0237 304.9816 15.98412915  1961
MERAH PUTIH 2           
1 58995U 24035A   24061.61053735 -.00000322  00000+0  00000+0 0  9999
2 58995   0.0673 292.6967 0004258  59.8601 141.2667  0.99963051   192
FALCON 9 R/B            
1 58996U 24035B   24061.57802202  .00000809  00000+0  16909-2 0  9993
2 58996  20.6964 287.9514 8031362 182.6469 165.4201  1.38508337   121
AAC-AIS-SAT3            
1 58997U 23174DJ  24062.15504353  .00002157  00000+0  33852-3 0  9993
2 58997  97.7296 136.4482 0007909 164.5538 195.5913 14.73579473 17398
STARLINK-31468          
1 58998U 24036A   24061.66667824 -.01201590  00000+0 -71457-2 0  9997
2 58998  53.1670 267.6683 0001184  94.3816  67.2432 15.79952232  2322
