OBJECT_NAME,OBJECT_ID,EPOCH,MEAN_MOTION,ECCENTRICITY,INCLINATION,RA_OF_ASC_NODE,ARG_OF_PERICENTER,MEAN_ANOMALY,EPHEMERIS_TYPE,CLASSIFICATION_TYPE,NORAD_CAT_ID,ELEMENT_SET_NO,REV_AT_EPOCH,BSTAR,MEAN_MOTION_DOT,MEAN_MOTION_DDOT
STARLINK-31335,2024-031E,2024-02-29T14:00:01.000224,15.65667543,0.0001008,53.1605,130.3539,59.1979,342.68,0,U,58969,999,336,-0.018612,-0.01685217,0
STARLINK-31368,2024-031F,2024-02-29T08:00:01.000224,15.66629666,0.0001096,53.1612,131.5764,80.695,352.7764,0,U,58970,999,332,-0.01856,-0.01739879,0
STARLINK-31333,2024-031G,2024-03-01T22:00:00.999936,15.60675823,6.41e-05,53.1603,123.8335,89.6287,263.5682,0,U,58971,999,360,-0.023141,-0.01746914,0
STARLINK-31351,2024-031H,2024-03-01T14:00:01.000224,15.61888204,7.24e-05,53.1602,125.4544,73.2991,207.1835,0,U,58972,999,355,-0.021434,-0.0170159,0
STARLINK-31365,2024-031J,2024-02-29T14:00:01.000224,15.65615617,8.64e-05,53.1607,130.335,71.1794,340.3624,0,U,58973,999,336,-0.018632,-0.01683604,0
STARLINK-31361,2024-031K,2024-02-29T04:00:00.999936,15.67195568,0.0001168,53.1609,132.3813,111.6502,106.9831,0,U,58974,999,332,-0.017567,-0.01692017,0
STARLINK-31369,2024-031L,2024-03-01T18:00:02.000160,15.61269256,0.0001155,53.1597,124.6308,67.7057,75.9852,0,U,58975,999,358,-0.022745,-0.01756295,0
STARLINK-31324,2024-031M,2024-02-29T04:00:00.999936,15.67165625,0.0001225,53.1613,132.3686,98.3817,126.0965,0,U,58976,999,329,-0.017608,-0.01693696,0
STARLINK-31358,2024-031N,2024-03-01T02:00:01.000224,15.63708736,6.13e-05,53.1598,127.8723,91.1441,264.1971,0,U,58977,999,339,-0.019963,-0.01672288,0
STARLINK-31355,2024-031P,2024-03-02T06:00:00.999648,15.59371723,8.9e-05,53.1607,122.1863,91.8498,347.5516,0,U,58978,999,366,-0.024501,-0.0175767,0
STARLINK-31380,2024-031Q,2024-02-29T16:00:00.999936,15.652507,0.0001006,53.16,129.9054,70.7345,100.3626,0,U,58979,999,340,-0.018798,-0.01675004,0
STARLINK-31353,2024-031R,2024-02-29T10:00:01.999584,15.66194931,9.73e-05,53.1606,131.1235,62.1783,142.89,0,U,58980,999,331,-0.018754,-0.01728667,0
STARLINK-31339,2024-031S,2024-02-29T16:00:00.999936,15.65239724,0.0001161,53.1601,129.903,63.829,109.1983,0,U,58981,999,340,-0.018794,-0.01674132,0
STARLINK-31360,2024-031T,2024-02-29T08:00:01.000224,15.66502912,0.0001538,53.1606,131.5289,64.8502,31.9227,0,U,58982,999,332,-0.018567,-0.01732887,0
STARLINK-31384,2024-031U,2024-03-02T06:00:00.999648,15.59321353,0.000102,53.1606,122.1671,84.2352,4.5195,0,U,58983,999,362,-0.024569,-0.01759056,0
STARLINK-31379,2024-031V,2024-03-01T16:00:00.999936,15.61462002,8.63e-05,53.16,125.0011,69.6859,342.2917,0,U,58984,999,356,-0.021904,-0.01709353,0
STARLINK-31385,2024-031W,2024-03-02T06:00:00.999648,15.7316372,3.77e-05,53.1619,121.4732,27.8979,43.6935,0,U,58985,999,363,-5.6006e-05,-8.458e-05,0
STARLINK-31229,2024-031X,2024-02-29T08:00:01.000224,15.66237465,0.0001591,53.1607,131.5118,73.5085,30.8089,0,U,58986,999,332,-0.017602,-0.01637729,0
2024-032A,2024-032A,2024-03-02T02:48:16.030080,14.66579647,0.0002368,98.1173,119.373,187.5149,172.602,0,U,58987,999,206,0.00011726,6.03e-06,0
2024-032B,2024-032B,2024-02-21T10:15:45.408096,14.66967822,0.0001717,98.12,109.7876,268.0294,92.0713,0,U,58988,999,64,0.0025736,0.00014389,0
2024-032C,2024-032C,2024-03-02T02:30:49.363200,14.67857356,0.0004409,98.1131,119.3796,297.6075,62.4681,0,U,58989,999,206,0.0002834,1.57e-05,0
INSAT-3DS,2024-033A,2024-02-18T06:09:05.908896,2.12501023,0.7439297,19.4346,272.9648,178.6043,206.5352,0,U,58990,999,2,0.014711,0.00477622,8.9628e-07
GSLV R/B,2024-033B,2024-03-01T09:25:40.117152,2.13406415,0.7433746,19.354,268.4907,186.7031,149.8604,0,U,58991,999,27,0.0008974,0.00034622,5.0837e-07
ADRAS-J,2024-034A,2024-03-02T02:49:49.317024,15.00598057,0.0046565,98.2028,30.2705,42.596,317.8859,0,U,58992,999,187,0.0005546,7.102e-05,0
ELECTRON KICK STAGE R/B,2024-034B,2024-03-01T21:50:29.311008,15.01664747,0.0046559,98.2069,30.0861,43.6744,316.8148,0,U,58993,999,184,0.00099527,0.00013179,0
ELECTRON R/B,2024-034C,2024-03-02T03:45:05.502816,15.98412915,0.0139656,98.2089,32.096,185.0237,304.9816,0,U,58994,999,196,0.0016308,0.02312629,2.6517e-06
MERAH PUTIH 2,2024-035A,2024-03-01T14:39:10.427040,0.99963051,0.0004258,0.0673,292.6967,59.8601,141.2667,0,U,58995,999,19,0,-3.22e-06,0
FALCON 9 R/B,2024-035B,2024-03-01T13:52:21.102528,1.38508337,0.8031362,20.6964,287.9514,182.6469,165.4201,0,U,58996,999,12,0.0016909,8.09e-06,0
AAC-AIS-SAT3,2023-174DJ,2024-03-02T03:43:15.760992,14.73579473,0.0007909,97.7296,136.4482,164.5538,195.5913,0,U,58997,999,1739,0.00033852,2.157e-05,0
STARLINK-31468,2024-036A,2024-03-01T16:00:00.999936,15.79952232,0.0001184,53.167,267.6683,94.3816,67.2432,0,U,58998,999,232,-0.0071457,-0.0120159,0
